{
    "links": {
        "self": "http://www.neowsapp.com/rest/v1/neo/3387551?api_key=iIulBulltgU6a56xZRHN4H3l9WmuAYTsLGpBGhQ2"
    },
    "id": "3387551",
    "neo_reference_id": "3387551",
    "name": "(2007 TC14)",
    "designation": "2007 TC14",
    "nasa_jpl_url": "http://ssd.jpl.nasa.gov/sbdb.cgi?sstr=3387551",
    "absolute_magnitude_h": 22.1,
    "estimated_diameter": {
        "kilometers": {
            "estimated_diameter_min": 0.1010543415,
            "estimated_diameter_max": 0.2259643771
        },
        "meters": {
            "estimated_diameter_min": 101.054341542,
            "estimated_diameter_max": 225.9643771094
        },
        "miles": {
            "estimated_diameter_min": 0.0627922373,
            "estimated_diameter_max": 0.140407711
        },
        "feet": {
            "estimated_diameter_min": 331.5431259047,
            "estimated_diameter_max": 741.3529669956
        }
    },
    "is_potentially_hazardous_asteroid": false,
    "close_approach_data": [
        {
            "close_approach_date": "2007-10-18",
            "close_approach_date_full": "2007-Oct-18 08:26",
            "epoch_date_close_approach": 1192695960000,
            "relative_velocity": {
                "kilometers_per_second": "26.2460647519",
                "kilometers_per_hour": "94485.8331068944",
                "miles_per_hour": "58709.8222435589"
            },
            "miss_distance": {
                "astronomical": "0.0300312453",
                "lunar": "11.6821544217",
                "kilometers": "4492610.330327511",
                "miles": "2791578.6120452118"
            },
            "orbiting_body": "Earth"
        },
        {
            "close_approach_date": "2009-06-05",
            "close_approach_date_full": "2009-Jun-05 03:45",
            "epoch_date_close_approach": 1244173500000,
            "relative_velocity": {
                "kilometers_per_second": "6.7524875241",
                "kilometers_per_hour": "24308.9550866033",
                "miles_per_hour": "15104.6393425619"
            },
            "miss_distance": {
                "astronomical": "1.3596481331",
                "lunar": "528.9031237759",
                "kilometers": "203400464.661236497",
                "miles": "126387188.0887057786"
            },
            "orbiting_body": "Juptr"
        }
    ],
    "orbital_data": {
        "orbit_id": "16",
        "orbit_determination_date": "2017-04-06 09:05:51",
        "first_observation_date": "2007-10-08",
        "last_observation_date": "2007-10-16",
        "data_arc_in_days": 8,
        "observations_used": 135,
        "orbit_uncertainty": "8",
        "minimum_orbit_intersection": ".0268299",
        "jupiter_tisserand_invariant": "3.238",
        "epoch_osculation": "2454386.5",
        "eccentricity": ".8070693310047553",
        "semi_major_axis": "2.087395501432034",
        "inclination": "4.637411239309128",
        "ascending_node_longitude": "224.665836725161",
        "orbital_period": "1101.553365378641",
        "perihelion_distance": ".4027226105489465",
        "perihelion_argument": "268.6788217454116",
        "aphelion_distance": "3.772068392315121",
        "perihelion_time": "2454435.857855934718",
        "mean_anomaly": "343.8692988510904",
        "mean_motion": ".3268112206949284",
        "equinox": "J2000",
        "orbit_class": {
            "orbit_class_type": "APO",
            "orbit_class_description": "Near-Earth asteroid orbits which cross the Earth’s orbit similar to that of 1862 Apollo",
            "orbit_class_range": "a (semi-major axis) > 1.0 AU; q (perihelion) < 1.017 AU"
        }
    },
    "is_sentry_object": false
}